Street Name,Municipality,Postal Code,Latitude,Longitude
DONORA DR,Toronto,M4B 1B3,43.6985,-79.3054
DONORA DR,Toronto,M4B 1B4,43.6985,-79.3054
DONORA DR,Toronto,M4B 1B5,43.6985,-79.3054
DONORA DR,Toronto,M4B 1B6,43.6985,-79.3054
AVIS CRES,Toronto,M4B 1B7,43.6985,-79.3054
AVIS CRES,Toronto,M4B 1B8,43.6985,-79.3054
CHAPMAN AVE,Toronto,M4B 1C2,43.6985,-79.3054
CHAPMAN AVE,Toronto,M4B 1C3,43.6985,-79.3054
CHAPMAN AVE,Toronto,M4B 1C4,43.6985,-79.3054
CHAPMAN AVE,Toronto,M4B 1C5,43.6985,-79.3054
CHAPMAN AVE,Toronto,M4B 1C6,43.6985,-79.3054
BRENTON ST,Toronto,M4B 1C7,43.6985,-79.3054
BRENTON ST,Toronto,M4B 1C8,43.6985,-79.3054
BRENTON ST,Toronto,M4B 1C9,43.6985,-79.3054
BRENTON ST,Toronto,M4B 1E1,43.6985,-79.3054
FERRIS RD,Toronto,M4B 1E7,43.6985,-79.3054
FERRIS RD,Toronto,M4B 1E8,43.6985,-79.3054
FERRIS RD,Toronto,M4B 1E9,43.6985,-79.3054
FERRIS RD,Toronto,M4B 1G1,43.6985,-79.3054
FERRIS RD,Toronto,M4B 1G2,43.6985,-79.3054
FERRIS RD,Toronto,M4B 1G3,43.6985,-79.3054
FERRIS RD,Toronto,M4B 1G4,43.6985,-79.3054
FERRIS RD,Toronto,M4B 1G5,43.6985,-79.3054
FERRIS RD,Toronto,M4B 1G6,43.6985,-79.3054
FERRIS RD,Toronto,M4B 1G7,43.6985,-79.3054
FERRIS RD,Toronto,M4B 1G8,43.6985,-79.3054
FERRIS RD,Toronto,M4B 1G9,43.6985,-79.3054
FERRIS RD,Toronto,M4B 1H1,43.6985,-79.3054
FERRIS RD,Toronto,M4B 1H2,43.6985,-79.3054
FERRIS RD,Toronto,M4B 1H3,43.6985,-79.3054
FERRIS RD,Toronto,M4B 1H4,43.6985,-79.3054
FERRIS RD,Toronto,M4B 1H5,43.6985,-79.3054
FERRIS RD,Toronto,M4B 1H6,43.6985,-79.3054
GLEN ALBERT DR,Toronto,M4B 1J1,43.6985,-79.3054
GLEN ALBERT DR,Toronto,M4B 1J2,43.6985,-79.3054
GLEN ALBERT DR,Toronto,M4B 1J3,43.6985,-79.3054
GLEN ROBERT DR,Toronto,M4B 1J4,43.6985,-79.3054
GLEN ROBERT DR,Toronto,M4B 1J5,43.6985,-79.3054
GLENCREST BLVD,Toronto,M4B 1L2,43.6985,-79.3054
GLENCREST BLVD,Toronto,M4B 1L3,43.6985,-79.3054
GLENCREST BLVD,Toronto,M4B 1L4,43.6985,-79.3054
GLENCREST BLVD,Toronto,M4B 1L5,43.6985,-79.3054
GLENCREST BLVD,Toronto,M4B 1L6,43.6985,-79.3054
GLENCREST BLVD,Toronto,M4B 1L7,43.6985,-79.3054
GLENCREST BLVD,Toronto,M4B 1L8,43.6985,-79.3054
GLENCREST BLVD,Toronto,M4B 1L9,43.6985,-79.3054
GARDENS CRES,Toronto,M4B 1T4,43.6985,-79.3054
GARDENS CRES,Toronto,M4B 1T5,43.6985,-79.3054
DALECREST DR,Toronto,M4B 1V2,43.6985,-79.3054
DALECREST DR,Toronto,M4B 1V3,43.6985,-79.3054
ADAIR RD,Toronto,M4B 1V4,43.6985,-79.3054
ADAIR RD,Toronto,M4B 1V5,43.6985,-79.3054
ADAIR RD,Toronto,M4B 1V6,43.6985,-79.3054
ADAIR RD,Toronto,M4B 1V7,43.6985,-79.3054
BARRETT RD,Toronto,M4B 1V8,43.6985,-79.3054
BARRETT RD,Toronto,M4B 1V9,43.6985,-79.3054
FURNIVAL RD,Toronto,M4B 1W1,43.6985,-79.3054
FURNIVAL RD,Toronto,M4B 1W2,43.6985,-79.3054
FURNIVAL RD,Toronto,M4B 1W3,43.6985,-79.3054
FURNIVAL RD,Toronto,M4B 1W4,43.6985,-79.3054
FURNIVAL RD,Toronto,M4B 1W5,43.6985,-79.3054
FURNIVAL RD,Toronto,M4B 1W6,43.6985,-79.3054
FURNIVAL RD,Toronto,M4B 1W7,43.6985,-79.3054
FURNIVAL RD,Toronto,M4B 1W8,43.6985,-79.3054
CURITY AVE,Toronto,M4B 1X2,43.6985,-79.3054
CURITY AVE,Toronto,M4B 1X4,43.6985,-79.3054
CURITY AVE,Toronto,M4B 1X7,43.6985,-79.3054
DOHME AVE,Toronto,M4B 1Y7,43.6985,-79.3054
DOHME AVE,Toronto,M4B 1Y8,43.6985,-79.3054
DOHME AVE,Toronto,M4B 1Y9,43.6985,-79.3054
BERMONDSEY RD,Toronto,M4B 1Z1,43.6985,-79.3054
BERMONDSEY RD,Toronto,M4B 1Z5,43.6985,-79.3054
BERMONDSEY RD,Toronto,M4B 1Z7,43.6985,-79.3054
GALBRAITH AVE,Toronto,M4B 2B4,43.6985,-79.3054
GALBRAITH AVE,Toronto,M4B 2B5,43.6985,-79.3054
GALBRAITH AVE,Toronto,M4B 2B6,43.6985,-79.3054
GALBRAITH AVE,Toronto,M4B 2B7,43.6985,-79.3054
GALBRAITH AVE,Toronto,M4B 2B8,43.6985,-79.3054
AMSTERDAM AVE,Toronto,M4B 2B9,43.6985,-79.3054
AMSTERDAM AVE,Toronto,M4B 2C1,43.6985,-79.3054
AMSTERDAM AVE,Toronto,M4B 2C2,43.6985,-79.3054
AMSTERDAM AVE,Toronto,M4B 2C3,43.6985,-79.3054
GLENSHAW CRES,Toronto,M4B 2C8,43.6985,-79.3054
GLENSHAW CRES,Toronto,M4B 2C9,43.6985,-79.3054
GLENSHAW CRES,Toronto,M4B 2E1,43.6985,-79.3054
DAWES RD,Toronto,M4B 2E2,43.6985,-79.3054
DAWES RD,Toronto,M4B 2E3,43.6985,-79.3054
DAWES RD,Toronto,M4B 2E4,43.6985,-79.3054
DAWES RD,Toronto,M4B 2E6,43.6985,-79.3054
DAWES RD,Toronto,M4B 2E7,43.6985,-79.3054
DAWES RD,Toronto,M4B 2E8,43.6985,-79.3054
DAWES RD,Toronto,M4B 2E9,43.6985,-79.3054
DAWES RD,Toronto,M4B 2G5,43.6985,-79.3054
DAWES RD,Toronto,M4B 2G6,43.6985,-79.3054
ELMONT DR,Toronto,M4B 2L9,43.6985,-79.3054
ELMONT DR,Toronto,M4B 2M1,43.6985,-79.3054
ELMONT DR,Toronto,M4B 2M2,43.6985,-79.3054
FERNCLIFF CRT,Toronto,M4B 2M3,43.6985,-79.3054
FERNCLIFF CRT,Toronto,M4B 2M3,43.6985,-79.3054
DRUID CRT,Toronto,M4B 2M5,43.6985,-79.3054
DRUID CRT,Toronto,M4B 2M5,43.6985,-79.3054
CEDARCREST BLVD,Toronto,M4B 2N9,43.6985,-79.3054
CEDARCREST BLVD,Toronto,M4B 2P1,43.6985,-79.3054
CEDARCREST BLVD,Toronto,M4B 2P2,43.6985,-79.3054
CEDARCREST BLVD,Toronto,M4B 2P3,43.6985,-79.3054
CEDARCREST BLVD,Toronto,M4B 2P4,43.6985,-79.3054
FERRIS CRES,Toronto,M4B 2P5,43.6985,-79.3054
GLEN GANNON DR,Toronto,M4B 2W3,43.6985,-79.3054
GLEN GANNON DR,Toronto,M4B 2W4,43.6985,-79.3054
GLENBURN AVE,Toronto,M4B 2W7,43.6985,-79.3054
GLENBURN AVE,Toronto,M4B 2X2,43.6985,-79.3054
GLENBURN AVE,Toronto,M4B 2X3,43.6985,-79.3054
GLENBURN AVE,Toronto,M4B 2X4,43.6985,-79.3054
GLENBURN AVE,Toronto,M4B 2X5,43.6985,-79.3054
GLENBURN AVE,Toronto,M4B 2X6,43.6985,-79.3054
GLENBURN AVE,Toronto,M4B 2X7,43.6985,-79.3054
GLEN EDEN CRES,Toronto,M4B 2X8,43.6985,-79.3054
GLEN EDEN CRES,Toronto,M4B 2X9,43.6985,-79.3054
GLENFIELD CRES,Toronto,M4B 2Y1,43.6985,-79.3054
ALDER RD,Toronto,M4B 2Y2,43.6985,-79.3054
ALDER RD,Toronto,M4B 2Y3,43.6985,-79.3054
ALDER RD,Toronto,M4B 2Y4,43.6985,-79.3054
ALDER RD,Toronto,M4B 2Y5,43.6985,-79.3054
FAIRCREST CIR,Toronto,M4B 2Y6,43.6985,-79.3054
FAIRCREST CIR,Toronto,M4B 2Y6,43.6985,-79.3054
ASPEN AVE,Toronto,M4B 2Y9,43.6985,-79.3054
ASPEN AVE,Toronto,M4B 2Z1,43.6985,-79.3054
ELSWICK RD,Toronto,M4B 2Z4,43.6985,-79.3054
ELSWICK RD,Toronto,M4B 2Z5,43.6985,-79.3054
ELSWICK RD,Toronto,M4B 2Z6,43.6985,-79.3054
ELSWICK RD,Toronto,M4B 2Z7,43.6985,-79.3054
DENVALE RD,Toronto,M4B 3B3,43.6985,-79.3054
DENVALE RD,Toronto,M4B 3B4,43.6985,-79.3054
DENVALE RD,Toronto,M4B 3B5,43.6985,-79.3054
DENVALE RD,Toronto,M4B 3B6,43.6985,-79.3054
DENVALE RD,Toronto,M4B 3B7,43.6985,-79.3054
DENVALE RD,Toronto,M4B 3B8,43.6985,-79.3054
DENVALE RD,Toronto,M4B 3B9,43.6985,-79.3054
ASHALL BLVD,Toronto,M4B 3C1,43.6985,-79.3054
ASHALL BLVD,Toronto,M4B 3C2,43.6985,-79.3054
EDEN PARK RD,Toronto,M4B 3C3,43.6985,-79.3054
EDEN PARK RD,Toronto,M4B 3C4,43.6985,-79.3054
DORIS DR,Toronto,M4B 3C7,43.6985,-79.3054
DORIS DR,Toronto,M4B 3C8,43.6985,-79.3054
DORIS DR,Toronto,M4B 3C9,43.6985,-79.3054
CRANFIELD RD,Toronto,M4B 3G7,43.6985,-79.3054
CRANFIELD RD,Toronto,M4B 3H1,43.6985,-79.3054
CRANFIELD RD,Toronto,M4B 3H3,43.6985,-79.3054
CRANFIELD RD,Toronto,M4B 3H6,43.6985,-79.3054
CURRAN DR,Toronto,M4B 3K8,43.6985,-79.3054
GEORGE WEBSTER RD,Toronto,M4B 3K9,43.6985,-79.3054
GLENBURN AVE,Toronto,M4B 3L7,43.6985,-79.3054
CURITY AVE,Toronto,M4B 3L8,43.6985,-79.3054
CURITY AVE,Toronto,M4B 3M2,43.6985,-79.3054
DOHME AVE,Toronto,M4B 3M4,43.6985,-79.3054
BLAIR ST,Toronto,M4B 3N5,43.6985,-79.3054
BLAIR ST,Toronto,M4B 3N6,43.6985,-79.3054
BLAIR ST,Toronto,M4B 3P6,43.6985,-79.3054
DANFORTH AVE,Toronto,M4C 1K6,43.693,-79.3115
DANFORTH AVE,Toronto,M4C 1M5,43.693,-79.3115
DANFORTH AVE,Toronto,M4C 1M6,43.693,-79.3115
DANFORTH AVE,Toronto,M4C 1M7,43.693,-79.3115
DANFORTH AVE,Toronto,M4C 1N2,43.693,-79.3115
COLEMAN AVE,Toronto,M4C 1R4,43.693,-79.3115
COLEMAN AVE,Toronto,M4C 1R5,43.693,-79.3115
DENTON AVE,Toronto,M4C 1T7,43.693,-79.3115
DENTON AVE,Toronto,M4C 1T8,43.693,-79.3115
GATWICK AVE,Toronto,M4C 1W2,43.693,-79.3115
GATWICK AVE,Toronto,M4C 1W3,43.693,-79.3115
GATWICK AVE,Toronto,M4C 1W4,43.693,-79.3115
GATWICK AVE,Toronto,M4C 1W5,43.693,-79.3115
DENTONIA PARK AVE,Toronto,M4C 1W6,43.693,-79.3115
DENTONIA PARK AVE,Toronto,M4C 1W7,43.693,-79.3115
DENTONIA PARK AVE,Toronto,M4C 1W8,43.693,-79.3115
DENTONIA PARK AVE,Toronto,M4C 1W9,43.693,-79.3115
DENTONIA PARK AVE,Toronto,M4C 1X1,43.693,-79.3115
DENTONIA PARK AVE,Toronto,M4C 1X2,43.693,-79.3115
DONCASTER AVE,Toronto,M4C 1Y4,43.693,-79.3115
DONCASTER AVE,Toronto,M4C 1Y5,43.693,-79.3115
DONCASTER AVE,Toronto,M4C 1Y6,43.693,-79.3115
DONCASTER AVE,Toronto,M4C 1Y7,43.693,-79.3115
DONCASTER AVE,Toronto,M4C 1Y8,43.693,-79.3115
DONCASTER AVE,Toronto,M4C 1Y9,43.693,-79.3115
EPSOM AVE,Toronto,M4C 2A5,43.693,-79.3115
EPSOM AVE,Toronto,M4C 2A6,43.693,-79.3115
EPSOM AVE,Toronto,M4C 2A7,43.693,-79.3115
EPSOM AVE,Toronto,M4C 2A8,43.693,-79.3115
FRATER AVE,Toronto,M4C 2H3,43.693,-79.3115
FRATER AVE,Toronto,M4C 2H4,43.693,-79.3115
FRATER AVE,Toronto,M4C 2H5,43.693,-79.3115
FRATER AVE,Toronto,M4C 2H6,43.693,-79.3115
FRATER AVE,Toronto,M4C 2H7,43.693,-79.3115
FRATER AVE,Toronto,M4C 2H8,43.693,-79.3115
CREWE AVE,Toronto,M4C 2H9,43.693,-79.3115
CREWE AVE,Toronto,M4C 2J1,43.693,-79.3115
CREWE AVE,Toronto,M4C 2J2,43.693,-79.3115
CREWE AVE,Toronto,M4C 2J3,43.693,-79.3115
DUNKIRK RD,Toronto,M4C 2L9,43.693,-79.3115
DUNKIRK RD,Toronto,M4C 2M1,43.693,-79.3115
DUNKIRK RD,Toronto,M4C 2M2,43.693,-79.3115
DUNKIRK RD,Toronto,M4C 2M3,43.693,-79.3115
DUNKIRK RD,Toronto,M4C 2M4,43.693,-79.3115
DUNKIRK RD,Toronto,M4C 2M5,43.693,-79.3115
DUNKIRK RD,Toronto,M4C 2M6,43.693,-79.3115
BARKER AVE,Toronto,M4C 2N3,43.693,-79.3115
BARKER AVE,Toronto,M4C 2N4,43.693,-79.3115
BARKER AVE,Toronto,M4C 2N5,43.693,-79.3115
BARKER AVE,Toronto,M4C 2N6,43.693,-79.3115
BARKER AVE,Toronto,M4C 2N7,43.693,-79.3115
BARKER AVE,Toronto,M4C 2N8,43.693,-79.3115
BARKER AVE,Toronto,M4C 2N9,43.693,-79.3115
BARKER AVE,Toronto,M4C 2P1,43.693,-79.3115
BARKER AVE,Toronto,M4C 2P2,43.693,-79.3115
BARKER AVE,Toronto,M4C 2P3,43.693,-79.3115
BARKER AVE,Toronto,M4C 2P4,43.693,-79.3115
BARKER AVE,Toronto,M4C 2P5,43.693,-79.3115
CAMBRAI AVE,Toronto,M4C 2P6,43.693,-79.3115
CAMBRAI AVE,Toronto,M4C 2P7,43.693,-79.3115
COSBURN AVE,Toronto,M4C 2T9,43.693,-79.3115
COSBURN AVE,Toronto,M4C 2V1,43.693,-79.3115
COSBURN AVE,Toronto,M4C 2V2,43.693,-79.3115
COSBURN AVE,Toronto,M4C 2V4,43.693,-79.3115
COSBURN AVE,Toronto,M4C 2V5,43.693,-79.3115
COSBURN AVE,Toronto,M4C 2V6,43.693,-79.3115
COSBURN AVE,Toronto,M4C 2V7,43.693,-79.3115
COSBURN AVE,Toronto,M4C 2V8,43.693,-79.3115
COSBURN AVE,Toronto,M4C 2V9,43.693,-79.3115
COSBURN AVE,Toronto,M4C 2W1,43.693,-79.3115
COSBURN AVE,Toronto,M4C 2W2,43.693,-79.3115
COSBURN AVE,Toronto,M4C 2W3,43.693,-79.3115
COSBURN AVE,Toronto,M4C 2W4,43.693,-79.3115
COSBURN AVE,Toronto,M4C 2W5,43.693,-79.3115
COSBURN AVE,Toronto,M4C 2W6,43.693,-79.3115
COSBURN AVE,Toronto,M4C 2W7,43.693,-79.3115
COSBURN AVE,Toronto,M4C 2W8,43.693,-79.3115
COSBURN AVE,Toronto,M4C 2W9,43.693,-79.3115
COSBURN AVE,Toronto,M4C 2X1,43.693,-79.3115
BRACEBRIDGE AVE,Toronto,M4C 2X6,43.693,-79.3115
BRACEBRIDGE AVE,Toronto,M4C 2X7,43.693,-79.3115
BARBARA CRES,Toronto,M4C 3B1,43.693,-79.3115
BARBARA CRES,Toronto,M4C 3B2,43.693,-79.3115
COXWELL AVE,Toronto,M4C 3E1,43.693,-79.3115
COXWELL AVE,Toronto,M4C 3E2,43.693,-79.3115
COXWELL AVE,Toronto,M4C 3E3,43.693,-79.3115
COXWELL AVE,Toronto,M4C 3E4,43.693,-79.3115
COXWELL AVE,Toronto,M4C 3E5,43.693,-79.3115
COXWELL AVE,Toronto,M4C 3E6,43.693,-79.3115
COXWELL AVE,Toronto,M4C 3E8,43.693,-79.3115
COXWELL AVE,Toronto,M4C 3G1,43.693,-79.3115
COXWELL AVE,Toronto,M4C 3G2,43.693,-79.3115
COXWELL AVE,Toronto,M4C 3G3,43.693,-79.3115
COXWELL AVE,Toronto,M4C 3G4,43.693,-79.3115
COXWELL AVE,Toronto,M4C 3G5,43.693,-79.3115
COXWELL BLVD,Toronto,M4C 3G6,43.693,-79.3115
COXWELL BLVD,Toronto,M4C 3G7,43.693,-79.3115
FAIRSIDE AVE,Toronto,M4C 3G8,43.693,-79.3115
FAIRSIDE AVE,Toronto,M4C 3G9,43.693,-79.3115
FAIRSIDE AVE,Toronto,M4C 3H1,43.693,-79.3115
FAIRSIDE AVE,Toronto,M4C 3H2,43.693,-79.3115
FAIRSIDE AVE,Toronto,M4C 3H3,43.693,-79.3115
FAIRSIDE AVE,Toronto,M4C 3H4,43.693,-79.3115
CRESTLAND AVE,Toronto,M4C 3K9,43.693,-79.3115
CRESTLAND AVE,Toronto,M4C 3L1,43.693,-79.3115
BINSWOOD AVE,Toronto,M4C 3N3,43.693,-79.3115
BINSWOOD AVE,Toronto,M4C 3N4,43.693,-79.3115
BINSWOOD AVE,Toronto,M4C 3N5,43.693,-79.3115
BINSWOOD AVE,Toronto,M4C 3N6,43.693,-79.3115
BINSWOOD AVE,Toronto,M4C 3N7,43.693,-79.3115
BINSWOOD AVE,Toronto,M4C 3N8,43.693,-79.3115
BINSWOOD AVE,Toronto,M4C 3N9,43.693,-79.3115
BINSWOOD AVE,Toronto,M4C 3P1,43.693,-79.3115
GLEBEMOUNT AVE,Toronto,M4C 3S1,43.693,-79.3115
GLEBEMOUNT AVE,Toronto,M4C 3S2,43.693,-79.3115
GLEBEMOUNT AVE,Toronto,M4C 3S3,43.693,-79.3115
GLEBEMOUNT AVE,Toronto,M4C 3S4,43.693,-79.3115
GLEBEMOUNT AVE,Toronto,M4C 3S5,43.693,-79.3115
GLEBEMOUNT AVE,Toronto,M4C 3S6,43.693,-79.3115
GLEBEMOUNT AVE,Toronto,M4C 3S7,43.693,-79.3115
GLEBEMOUNT AVE,Toronto,M4C 3S8,43.693,-79.3115
GLEBEMOUNT AVE,Toronto,M4C 3S9,43.693,-79.3115
GLEBEMOUNT AVE,Toronto,M4C 3T1,43.693,-79.3115
GLEBEMOUNT AVE,Toronto,M4C 3T2,43.693,-79.3115
GLEBEMOUNT AVE,Toronto,M4C 3T3,43.693,-79.3115
GLEBEMOUNT AVE,Toronto,M4C 3T4,43.693,-79.3115
GLEBEMOUNT AVE,Toronto,M4C 3T5,43.693,-79.3115
GLEBEMOUNT AVE,Toronto,M4C 3T6,43.693,-79.3115
GLEBEMOUNT AVE,Toronto,M4C 3T7,43.693,-79.3115
GLEBEMOUNT AVE,Toronto,M4C 3T8,43.693,-79.3115
GLEBEMOUNT AVE,Toronto,M4C 3T9,43.693,-79.3115
GLEBEMOUNT AVE,Toronto,M4C 3V1,43.693,-79.3115
GLEBEMOUNT AVE,Toronto,M4C 3V2,43.693,-79.3115
GLEBEMOUNT AVE,Toronto,M4C 3V3,43.693,-79.3115
GLEBEMOUNT AVE,Toronto,M4C 3V4,43.693,-79.3115
GLEBEMOUNT AVE,Toronto,M4C 3V5,43.693,-79.3115
GLEBEMOUNT AVE,Toronto,M4C 3V6,43.693,-79.3115
COLERIDGE AVE,Toronto,M4C 4H4,43.693,-79.3115
COLERIDGE AVE,Toronto,M4C 4H5,43.693,-79.3115
COLERIDGE AVE,Toronto,M4C 4H6,43.693,-79.3115
COLERIDGE AVE,Toronto,M4C 4H7,43.693,-79.3115
COLERIDGE AVE,Toronto,M4C 4H8,43.693,-79.3115
COLERIDGE AVE,Toronto,M4C 4H9,43.693,-79.3115
COLERIDGE AVE,Toronto,M4C 4J1,43.693,-79.3115
COLERIDGE AVE,Toronto,M4C 4J2,43.693,-79.3115
CEDARVALE AVE,Toronto,M4C 4J9,43.693,-79.3115
CEDARVALE AVE,Toronto,M4C 4K2,43.693,-79.3115
CEDARVALE AVE,Toronto,M4C 4K3,43.693,-79.3115
CEDARVALE AVE,Toronto,M4C 4K4,43.693,-79.3115
CEDARVALE AVE,Toronto,M4C 4K5,43.693,-79.3115
CEDARVALE AVE,Toronto,M4C 4K6,43.693,-79.3115
CEDARVALE AVE,Toronto,M4C 4K7,43.693,-79.3115
CEDARVALE AVE,Toronto,M4C 4K8,43.693,-79.3115
GLEDHILL AVE,Toronto,M4C 4L1,43.693,-79.3115
GLEDHILL AVE,Toronto,M4C 4L2,43.693,-79.3115
GLEDHILL AVE,Toronto,M4C 4L3,43.693,-79.3115
EVERETT CRES,Toronto,M4C 4P2,43.693,-79.3115
EVERETT CRES,Toronto,M4C 4P3,43.693,-79.3115
EVERETT CRES,Toronto,M4C 4P4,43.693,-79.3115
CHISHOLM AVE,Toronto,M4C 4V5,43.693,-79.3115
CHISHOLM AVE,Toronto,M4C 4V6,43.693,-79.3115
CHISHOLM AVE,Toronto,M4C 4V7,43.693,-79.3115
CHISHOLM AVE,Toronto,M4C 4V8,43.693,-79.3115
CHISHOLM AVE,Toronto,M4C 4V9,43.693,-79.3115
CHISHOLM AVE,Toronto,M4C 4W1,43.693,-79.3115
CHISHOLM AVE,Toronto,M4C 4W2,43.693,-79.3115
CHISHOLM AVE,Toronto,M4C 4W3,43.693,-79.3115
CHISHOLM AVE,Toronto,M4C 4W4,43.693,-79.3115
CHISHOLM AVE,Toronto,M4C 4W5,43.693,-79.3115
CHISHOLM AVE,Toronto,M4C 4W6,43.693,-79.3115
CHISHOLM AVE,Toronto,M4C 4W7,43.693,-79.3115
CHISHOLM AVE,Toronto,M4C 4W8,43.693,-79.3115
CHISHOLM AVE,Toronto,M4C 4W9,43.693,-79.3115
CHISHOLM AVE,Toronto,M4C 4X1,43.693,-79.3115
BARRINGTON AVE,Toronto,M4C 4Y7,43.693,-79.3115
BARRINGTON AVE,Toronto,M4C 4Y9,43.693,-79.3115
BARRINGTON AVE,Toronto,M4C 4Z1,43.693,-79.3115
BARRINGTON AVE,Toronto,M4C 4Z2,43.693,-79.3115
EASTDALE AVE,Toronto,M4C 4Z8,43.693,-79.3115
EASTDALE AVE,Toronto,M4C 4Z9,43.693,-79.3115
EASTDALE AVE,Toronto,M4C 5A1,43.693,-79.3115
DAWES RD,Toronto,M4C 5B4,43.693,-79.3115
DAWES RD,Toronto,M4C 5B5,43.693,-79.3115
DAWES RD,Toronto,M4C 5B6,43.693,-79.3115
DAWES RD,Toronto,M4C 5B7,43.693,-79.3115
DAWES RD,Toronto,M4C 5B8,43.693,-79.3115
DAWES RD,Toronto,M4C 5B9,43.693,-79.3115
DAWES RD,Toronto,M4C 5C1,43.693,-79.3115
DAWES RD,Toronto,M4C 5C2,43.693,-79.3115
DAWES RD,Toronto,M4C 5C3,43.693,-79.3115
DAWES RD,Toronto,M4C 5C4,43.693,-79.3115
AVONLEA BLVD,Toronto,M4C 5E5,43.693,-79.3115
ELDON AVE,Toronto,M4C 5G1,43.693,-79.3115
ELDON AVE,Toronto,M4C 5G2,43.693,-79.3115
ELDON AVE,Toronto,M4C 5G3,43.693,-79.3115
BRYANT AVE,Toronto,M4C 5G8,43.693,-79.3115
BRYANT AVE,Toronto,M4C 5G9,43.693,-79.3115
GLEDHILL AVE,Toronto,M4C 5K6,43.693,-79.3115
GLEDHILL AVE,Toronto,M4C 5K7,43.693,-79.3115
GLEDHILL AVE,Toronto,M4C 5K8,43.693,-79.3115
GLEDHILL AVE,Toronto,M4C 5K9,43.693,-79.3115
GLEDHILL AVE,Toronto,M4C 5L1,43.693,-79.3115
GLEDHILL AVE,Toronto,M4C 5L2,43.693,-79.3115
CRESCENT TOWN RD,Toronto,M4C 5L3,43.693,-79.3115
BARRINGTON AVE,Toronto,M4C 5N1,43.693,-79.3115
DONCASTER AVE,Toronto,M4C 5S6,43.693,-79.3115
BENNINGTON HEIGHTS DR,Toronto,M4G 1A6,43.7116,-79.3622
BENNINGTON HEIGHTS DR,Toronto,M4G 1A6,43.7116,-79.3622
BENNINGTON HEIGHTS DR,Toronto,M4G 1A7,43.7116,-79.3622
BENNINGTON HEIGHTS DR,Toronto,M4G 1A7,43.7116,-79.3622
BENNINGTON HEIGHTS DR,Toronto,M4G 1A8,43.7116,-79.3622
BENNINGTON HEIGHTS DR,Toronto,M4G 1A8,43.7116,-79.3622
BENNINGTON HEIGHTS DR,Toronto,M4G 1A9,43.7116,-79.3622
BENNINGTON HEIGHTS DR,Toronto,M4G 1A9,43.7116,-79.3622
BENNINGTON HEIGHTS DR,Toronto,M4G 1B1,43.7116,-79.3622
BENNINGTON HEIGHTS DR,Toronto,M4G 1B1,43.7116,-79.3622
BURNHAM RD,Toronto,M4G 1B9,43.7116,-79.3622
BURNHAM RD,Toronto,M4G 1C1,43.7116,-79.3622
EVERGREEN GDNS,Toronto,M4G 1C2,43.7116,-79.3622
EVERGREEN GDNS,Toronto,M4G 1C3,43.7116,-79.3622
EVERGREEN GDNS,Toronto,M4G 1C4,43.7116,-79.3622
EVERGREEN GDNS,Toronto,M4G 1C5,43.7116,-79.3622
CANVARCO RD,Toronto,M4G 1L3,43.7116,-79.3622
CANVARCO RD,Toronto,M4G 1L4,43.7116,-79.3622
AIRDRIE RD,Toronto,M4G 1L7,43.7116,-79.3622
AIRDRIE RD,Toronto,M4G 1L8,43.7116,-79.3622
AIRDRIE RD,Toronto,M4G 1L9,43.7116,-79.3622
AIRDRIE RD,Toronto,M4G 1M1,43.7116,-79.3622
AIRDRIE RD,Toronto,M4G 1M2,43.7116,-79.3622
AIRDRIE RD,Toronto,M4G 1M3,43.7116,-79.3622
AIRDRIE RD,Toronto,M4G 1M4,43.7116,-79.3622
AIRDRIE RD,Toronto,M4G 1M5,43.7116,-79.3622
AIRDRIE RD,Toronto,M4G 1M6,43.7116,-79.3622
AIRDRIE RD,Toronto,M4G 1M7,43.7116,-79.3622
AIRDRIE RD,Toronto,M4G 1M8,43.7116,-79.3622
AIRDRIE RD,Toronto,M4G 1M9,43.7116,-79.3622
AIRDRIE RD,Toronto,M4G 1N1,43.7116,-79.3622
AIRDRIE RD,Toronto,M4G 1N2,43.7116,-79.3622
AIRDRIE RD,Toronto,M4G 1N3,43.7116,-79.3622
AIRDRIE RD,Toronto,M4G 1N4,43.7116,-79.3622
FIELD AVE,Toronto,M4G 1Y4,43.7116,-79.3622
FIELD AVE,Toronto,M4G 1Y5,43.7116,-79.3622
FIELD AVE,Toronto,M4G 1Y6,43.7116,-79.3622
CRANDALL RD,Toronto,M4G 1Y7,43.7116,-79.3622
CRANDALL RD,Toronto,M4G 1Y8,43.7116,-79.3622
COMMERCIAL RD,Toronto,M4G 1Z3,43.7116,-79.3622
COMMERCIAL RD,Toronto,M4G 1Z4,43.7116,-79.3622
CAMERON CRES,Toronto,M4G 1Z7,43.7116,-79.3622
CAMERON CRES,Toronto,M4G 1Z8,43.7116,-79.3622
CAMERON CRES,Toronto,M4G 1Z9,43.7116,-79.3622
CAMERON CRES,Toronto,M4G 2A1,43.7116,-79.3622
CAMERON CRES,Toronto,M4G 2A2,43.7116,-79.3622
CAMERON CRES,Toronto,M4G 2A3,43.7116,-79.3622
FLEMING CRES,Toronto,M4G 2A8,43.7116,-79.3622
FLEMING CRES,Toronto,M4G 2A9,43.7116,-79.3622
FLEMING CRES,Toronto,M4G 2B1,43.7116,-79.3622
FLEMING CRES,Toronto,M4G 2B2,43.7116,-79.3622
CROFTON RD,Toronto,M4G 2B3,43.7116,-79.3622
CROFTON RD,Toronto,M4G 2B4,43.7116,-79.3622
EGLINTON AVE E,Toronto,M4G 2K3,43.7116,-79.3622
EGLINTON AVE E,Toronto,M4G 2K4,43.7116,-79.3622
EGLINTON AVE E,Toronto,M4G 2K5,43.7116,-79.3622
EGLINTON AVE E,Toronto,M4G 2K6,43.7116,-79.3622
EGLINTON AVE E,Toronto,M4G 2K7,43.7116,-79.3622
EGLINTON AVE E,Toronto,M4G 2K8,43.7116,-79.3622
EGLINTON AVE E,Toronto,M4G 2K9,43.7116,-79.3622
EGLINTON AVE E,Toronto,M4G 2L1,43.7116,-79.3622
EGLINTON AVE E,Toronto,M4G 2L2,43.7116,-79.3622
EGLINTON AVE E,Toronto,M4G 2L3,43.7116,-79.3622
EGLINTON AVE E,Toronto,M4G 2L7,43.7116,-79.3622
DONLEA DR,Toronto,M4G 2M1,43.7116,-79.3622
DONLEA DR,Toronto,M4G 2M2,43.7116,-79.3622
DONLEA DR,Toronto,M4G 2M3,43.7116,-79.3622
DONLEA DR,Toronto,M4G 2M4,43.7116,-79.3622
DONLEA DR,Toronto,M4G 2M5,43.7116,-79.3622
DONLEA DR,Toronto,M4G 2M6,43.7116,-79.3622
DONLEA DR,Toronto,M4G 2M7,43.7116,-79.3622
DONLEA DR,Toronto,M4G 2M8,43.7116,-79.3622
DONLEA DR,Toronto,M4G 2M9,43.7116,-79.3622
DONLEA DR,Toronto,M4G 2N1,43.7116,-79.3622
DONLEA DR,Toronto,M4G 2N2,43.7116,-79.3622
DONLEA DR,Toronto,M4G 2N3,43.7116,-79.3622
CRAIG CRES,Toronto,M4G 2N6,43.7116,-79.3622
DIVADALE DR,Toronto,M4G 2N7,43.7116,-79.3622
DIVADALE DR,Toronto,M4G 2N8,43.7116,-79.3622
DIVADALE DR,Toronto,M4G 2N9,43.7116,-79.3622
DIVADALE DR,Toronto,M4G 2P1,43.7116,-79.3622
DIVADALE DR,Toronto,M4G 2P2,43.7116,-79.3622
DIVADALE DR,Toronto,M4G 2P3,43.7116,-79.3622
DIVADALE DR,Toronto,M4G 2P4,43.7116,-79.3622
DIVADALE DR,Toronto,M4G 2P5,43.7116,-79.3622
DIVADALE DR,Toronto,M4G 2P6,43.7116,-79.3622
DIVADALE DR,Toronto,M4G 2P7,43.7116,-79.3622
DIVADALE DR,Toronto,M4G 2P8,43.7116,-79.3622
BROADWAY AVE,Toronto,M4G 2R1,43.7116,-79.3622
BROADWAY AVE,Toronto,M4G 2R2,43.7116,-79.3622
BROADWAY AVE,Toronto,M4G 2R3,43.7116,-79.3622
BROADWAY AVE,Toronto,M4G 2R4,43.7116,-79.3622
BROADWAY AVE,Toronto,M4G 2R5,43.7116,-79.3622
BROADWAY AVE,Toronto,M4G 2R6,43.7116,-79.3622
BROADWAY AVE,Toronto,M4G 2R7,43.7116,-79.3622
BROADWAY AVE,Toronto,M4G 2R8,43.7116,-79.3622
BROADWAY AVE,Toronto,M4G 2R9,43.7116,-79.3622
BROADWAY AVE,Toronto,M4G 2S1,43.7116,-79.3622
BROADWAY AVE,Toronto,M4G 2S2,43.7116,-79.3622
BROADWAY AVE,Toronto,M4G 2S3,43.7116,-79.3622
BROADWAY AVE,Toronto,M4G 2S4,43.7116,-79.3622
BROADWAY AVE,Toronto,M4G 2S5,43.7116,-79.3622
BROADWAY AVE,Toronto,M4G 2S6,43.7116,-79.3622
BROADWAY AVE,Toronto,M4G 2S7,43.7116,-79.3622
BROADWAY AVE,Toronto,M4G 2S8,43.7116,-79.3622
ANNESLEY AVE,Toronto,M4G 2T5,43.7116,-79.3622
ANNESLEY AVE,Toronto,M4G 2T6,43.7116,-79.3622
ANNESLEY AVE,Toronto,M4G 2T7,43.7116,-79.3622
FAIRLAND RD,Toronto,M4G 2T8,43.7116,-79.3622
FAIRLAND RD,Toronto,M4G 2T9,43.7116,-79.3622
GLENVALE BLVD,Toronto,M4G 2V1,43.7116,-79.3622
GLENVALE BLVD,Toronto,M4G 2V2,43.7116,-79.3622
GLENVALE BLVD,Toronto,M4G 2V3,43.7116,-79.3622
GLENVALE BLVD,Toronto,M4G 2V4,43.7116,-79.3622
GLENVALE BLVD,Toronto,M4G 2V5,43.7116,-79.3622
GLENVALE BLVD,Toronto,M4G 2V6,43.7116,-79.3622
GLENVALE BLVD,Toronto,M4G 2V7,43.7116,-79.3622
GLENVALE BLVD,Toronto,M4G 2V8,43.7116,-79.3622
GLENVALE BLVD,Toronto,M4G 2V9,43.7116,-79.3622
GLENVALE BLVD,Toronto,M4G 2W1,43.7116,-79.3622
GLENVALE BLVD,Toronto,M4G 2W2,43.7116,-79.3622
GLENVALE BLVD,Toronto,M4G 2W4,43.7116,-79.3622
GLENVALE BLVD,Toronto,M4G 2W5,43.7116,-79.3622
BRENDAN RD,Toronto,M4G 2W9,43.7116,-79.3622
BRENDAN RD,Toronto,M4G 2X1,43.7116,-79.3622
BRENDAN RD,Toronto,M4G 2X2,43.7116,-79.3622
GARDEN CIR,Toronto,M4G 2X7,43.7116,-79.3622
GARDEN CIR,Toronto,M4G 2X8,43.7116,-79.3622
BAYVIEW HEIGHTS DR,Toronto,M4G 2Y7,43.7116,-79.3622
BAYVIEW HEIGHTS DR,Toronto,M4G 2Y8,43.7116,-79.3622
BAYVIEW HEIGHTS DR,Toronto,M4G 2Y9,43.7116,-79.3622
BAYVIEW HEIGHTS DR,Toronto,M4G 2Z1,43.7116,-79.3622
BAYVIEW HEIGHTS DR,Toronto,M4G 2Z2,43.7116,-79.3622
BAYVIEW HEIGHTS DR,Toronto,M4G 2Z3,43.7116,-79.3622
BAYVIEW HEIGHTS DR,Toronto,M4G 2Z4,43.7116,-79.3622
BAYVIEW HEIGHTS DR,Toronto,M4G 2Z5,43.7116,-79.3622
BAYVIEW AVE,Toronto,M4G 2Z6,43.7116,-79.3622
BAYVIEW AVE,Toronto,M4G 2Z7,43.7116,-79.3622
BAYVIEW AVE,Toronto,M4G 2Z8,43.7116,-79.3622
BAYVIEW AVE,Toronto,M4G 3A4,43.7116,-79.3622
BAYVIEW AVE,Toronto,M4G 3A5,43.7116,-79.3622
BAYVIEW AVE,Toronto,M4G 3A6,43.7116,-79.3622
BAYVIEW AVE,Toronto,M4G 3A8,43.7116,-79.3622
BAYVIEW AVE,Toronto,M4G 3B5,43.7116,-79.3622
BAYVIEW AVE,Toronto,M4G 3C1,43.7116,-79.3622
BAYVIEW AVE,Toronto,M4G 3C5,43.7116,-79.3622
BAYVIEW AVE,Toronto,M4G 3E1,43.7116,-79.3622
BAYVIEW AVE,Toronto,M4G 3E4,43.7116,-79.3622
COPELAND ST,Toronto,M4G 3E7,43.7116,-79.3622
BERNEY CRES,Toronto,M4G 3G4,43.7116,-79.3622
DONEGALL DR,Toronto,M4G 3G5,43.7116,-79.3622
DONEGALL DR,Toronto,M4G 3G6,43.7116,-79.3622
DONEGALL DR,Toronto,M4G 3G7,43.7116,-79.3622
DONEGALL DR,Toronto,M4G 3G8,43.7116,-79.3622
DONEGALL DR,Toronto,M4G 3G9,43.7116,-79.3622
DONEGALL DR,Toronto,M4G 3H1,43.7116,-79.3622
DONEGALL DR,Toronto,M4G 3H2,43.7116,-79.3622
BESSBOROUGH DR,Toronto,M4G 3H6,43.7116,-79.3622
BESSBOROUGH DR,Toronto,M4G 3H7,43.7116,-79.3622
BESSBOROUGH DR,Toronto,M4G 3H8,43.7116,-79.3622
BESSBOROUGH DR,Toronto,M4G 3H9,43.7116,-79.3622
BESSBOROUGH DR,Toronto,M4G 3J1,43.7116,-79.3622
BESSBOROUGH DR,Toronto,M4G 3J2,43.7116,-79.3622
BESSBOROUGH DR,Toronto,M4G 3J3,43.7116,-79.3622
BESSBOROUGH DR,Toronto,M4G 3J4,43.7116,-79.3622
BESSBOROUGH DR,Toronto,M4G 3J5,43.7116,-79.3622
BESSBOROUGH DR,Toronto,M4G 3J6,43.7116,-79.3622
BESSBOROUGH DR,Toronto,M4G 3J7,43.7116,-79.3622
BESSBOROUGH DR,Toronto,M4G 3J8,43.7116,-79.3622
BESSBOROUGH DR,Toronto,M4G 3J9,43.7116,-79.3622
BESSBOROUGH DR,Toronto,M4G 3K1,43.7116,-79.3622
BESSBOROUGH DR,Toronto,M4G 3K2,43.7116,-79.3622
BESSBOROUGH DR,Toronto,M4G 3K3,43.7116,-79.3622
BESSBOROUGH DR,Toronto,M4G 3K4,43.7116,-79.3622
BESSBOROUGH DR,Toronto,M4G 3K5,43.7116,-79.3622
BESSBOROUGH DR,Toronto,M4G 3K6,43.7116,-79.3622
BESSBOROUGH DR,Toronto,M4G 3K7,43.7116,-79.3622
BESSBOROUGH DR,Toronto,M4G 3K8,43.7116,-79.3622
BESSBOROUGH DR,Toronto,M4G 3K9,43.7116,-79.3622
BESSBOROUGH DR,Toronto,M4G 3L1,43.7116,-79.3622
BESSBOROUGH DR,Toronto,M4G 3L2,43.7116,-79.3622
BESSBOROUGH DR,Toronto,M4G 3L3,43.7116,-79.3622
BESSBOROUGH DR,Toronto,M4G 3L4,43.7116,-79.3622
ASTOR AVE,Toronto,M4G 3M1,43.7116,-79.3622
ASTOR AVE,Toronto,M4G 3M2,43.7116,-79.3622
BEAUFIELD AVE,Toronto,M4G 3R2,43.7116,-79.3622
BEAUFIELD AVE,Toronto,M4G 3R3,43.7116,-79.3622
BEAUFIELD AVE,Toronto,M4G 3R3,43.7116,-79.3622
GLENBRAE AVE,Toronto,M4G 3R4,43.7116,-79.3622
GLENBRAE AVE,Toronto,M4G 3R5,43.7116,-79.3622
BRENTCLIFFE RD,Toronto,M4G 3Y2,43.7116,-79.3622
BRENTCLIFFE RD,Toronto,M4G 3Y4,43.7116,-79.3622
BRENTCLIFFE RD,Toronto,M4G 3Y5,43.7116,-79.3622
BRENTCLIFFE RD,Toronto,M4G 3Y6,43.7116,-79.3622
BRENTCLIFFE RD,Toronto,M4G 3Y7,43.7116,-79.3622
BRENTCLIFFE RD,Toronto,M4G 3Y8,43.7116,-79.3622
BRENTCLIFFE RD,Toronto,M4G 3Y9,43.7116,-79.3622
EGLINTON AVE E,Toronto,M4G 4B5,43.7116,-79.3622
EGLINTON AVE E,Toronto,M4G 4G9,43.7116,-79.3622
BESSBOROUGH DR,Toronto,M4G 4H5,43.7116,-79.3622
AERODROME CRES,Toronto,M4G 4J1,43.7116,-79.3622
AERODROME CRES,Toronto,M4G 4J2,43.7116,-79.3622
AERODROME CRES,Toronto,M4G 4J3,43.7116,-79.3622
AERODROME CRES,Toronto,M4G 4J4,43.7116,-79.3622
BRIAN PECK CRES,Toronto,M4G 4J7,43.7116,-79.3622
BRIAN PECK CRES,Toronto,M4G 4K4,43.7116,-79.3622
BANIGAN DR,Toronto,M4H 1E9,43.7045,-79.353
BANIGAN DR,Toronto,M4H 1G3,43.7045,-79.353
BETH NEALSON DR,Toronto,M4H 1M6,43.7045,-79.353
ALDWYCH AVE,Toronto,M4J 1X1,43.69,-79.3975
ALDWYCH AVE,Toronto,M4J 1X2,43.69,-79.3975
ALDWYCH AVE,Toronto,M4J 1X3,43.69,-79.3975
ALDWYCH AVE,Toronto,M4J 1X4,43.69,-79.3975
ALDWYCH AVE,Toronto,M4J 1X5,43.69,-79.3975
ALDWYCH AVE,Toronto,M4J 1X6,43.69,-79.3975
ALDWYCH AVE,Toronto,M4J 1X7,43.69,-79.3975
ALDWYCH AVE,Toronto,M4J 1X8,43.69,-79.3975
FLOYD AVE,Toronto,M4J 2H9,43.69,-79.3975
FLOYD AVE,Toronto,M4J 2J1,43.69,-79.3975
FLOYD AVE,Toronto,M4J 2J2,43.69,-79.3975
FLOYD AVE,Toronto,M4J 2J3,43.69,-79.3975
FLOYD AVE,Toronto,M4J 2J4,43.69,-79.3975
DIEPPE RD,Toronto,M4J 2K8,43.69,-79.3975
DIEPPE RD,Toronto,M4J 2K9,43.69,-79.3975
COSBURN AVE,Toronto,M4J 2L1,43.69,-79.3975
COSBURN AVE,Toronto,M4J 2L7,43.69,-79.3975
COSBURN AVE,Toronto,M4J 2M1,43.69,-79.3975
COSBURN AVE,Toronto,M4J 2M2,43.69,-79.3975
COSBURN AVE,Toronto,M4J 2M3,43.69,-79.3975
COSBURN AVE,Toronto,M4J 2M4,43.69,-79.3975
COSBURN AVE,Toronto,M4J 2M5,43.69,-79.3975
COSBURN AVE,Toronto,M4J 2M6,43.69,-79.3975
COSBURN AVE,Toronto,M4J 2M7,43.69,-79.3975
COSBURN AVE,Toronto,M4J 2M8,43.69,-79.3975
COSBURN AVE,Toronto,M4J 2M9,43.69,-79.3975
COSBURN AVE,Toronto,M4J 2N1,43.69,-79.3975
COSBURN AVE,Toronto,M4J 2N2,43.69,-79.3975
COSBURN AVE,Toronto,M4J 2N3,43.69,-79.3975
COSBURN AVE,Toronto,M4J 2N4,43.69,-79.3975
COSBURN AVE,Toronto,M4J 2N5,43.69,-79.3975
COSBURN AVE,Toronto,M4J 2N6,43.69,-79.3975
COSBURN AVE,Toronto,M4J 2N7,43.69,-79.3975
COSBURN AVE,Toronto,M4J 2N8,43.69,-79.3975
COSBURN AVE,Toronto,M4J 2N9,43.69,-79.3975
COSBURN AVE,Toronto,M4J 2P1,43.69,-79.3975
GAMBLE AVE,Toronto,M4J 2P2,43.69,-79.3975
GAMBLE AVE,Toronto,M4J 2P3,43.69,-79.3975
GAMBLE AVE,Toronto,M4J 2P4,43.69,-79.3975
FOUR OAKS GATE,Toronto,M4J 2X1,43.69,-79.3975
FOUR OAKS GATE,Toronto,M4J 2X2,43.69,-79.3975
FOUR OAKS GATE,Toronto,M4J 2X3,43.69,-79.3975
DAVIES CRES,Toronto,M4J 2X4,43.69,-79.3975
DAVIES CRES,Toronto,M4J 2X5,43.69,-79.3975
DAVIES CRES,Toronto,M4J 2X6,43.69,-79.3975
DAVIES CRES,Toronto,M4J 2X7,43.69,-79.3975
EATON AVE,Toronto,M4J 2Z8,43.69,-79.3975
EATON AVE,Toronto,M4J 2Z9,43.69,-79.3975
CHILTON RD,Toronto,M4J 3C5,43.69,-79.3975
CHILTON RD,Toronto,M4J 3C6,43.69,-79.3975
CHILTON RD,Toronto,M4J 3C7,43.69,-79.3975
CHILTON RD,Toronto,M4J 3C8,43.69,-79.3975
DEWHURST BLVD,Toronto,M4J 3J8,43.69,-79.3975
DEWHURST BLVD,Toronto,M4J 3J9,43.69,-79.3975
DEWHURST BLVD,Toronto,M4J 3K1,43.69,-79.3975
DEWHURST BLVD N,Toronto,M4J 3K2,43.69,-79.3975
DEWHURST BLVD N,Toronto,M4J 3K3,43.69,-79.3975
DEWHURST BLVD N,Toronto,M4J 3K4,43.69,-79.3975
DEWHURST BLVD N,Toronto,M4J 3K5,43.69,-79.3975
DEWHURST BLVD N,Toronto,M4J 3K6,43.69,-79.3975
DEWHURST BLVD N,Toronto,M4J 3K7,43.69,-79.3975
DEWHURST BLVD N,Toronto,M4J 3K8,43.69,-79.3975
DEWHURST BLVD N,Toronto,M4J 3K9,43.69,-79.3975
ELMSDALE RD,Toronto,M4J 3M3,43.69,-79.3975
ELMSDALE RD,Toronto,M4J 3M4,43.69,-79.3975
DONLANDS AVE,Toronto,M4J 3P3,43.69,-79.3975
DONLANDS AVE,Toronto,M4J 3P4,43.69,-79.3975
DONLANDS AVE,Toronto,M4J 3P5,43.69,-79.3975
DONLANDS AVE,Toronto,M4J 3P6,43.69,-79.3975
DONLANDS AVE,Toronto,M4J 3P7,43.69,-79.3975
DONLANDS AVE,Toronto,M4J 3P8,43.69,-79.3975
DONLANDS AVE,Toronto,M4J 3P9,43.69,-79.3975
DONLANDS AVE,Toronto,M4J 3R1,43.69,-79.3975
DONLANDS AVE,Toronto,M4J 3R2,43.69,-79.3975
DONLANDS AVE,Toronto,M4J 3R5,43.69,-79.3975
DONLANDS AVE,Toronto,M4J 3R7,43.69,-79.3975
DONLANDS AVE,Toronto,M4J 3R8,43.69,-79.3975
DONLANDS AVE,Toronto,M4J 3S2,43.69,-79.3975
DONLANDS AVE,Toronto,M4J 3S4,43.69,-79.3975
DONMORE AVE,Toronto,M4J 3V3,43.69,-79.3975
DONMORE AVE,Toronto,M4J 3V4,43.69,-79.3975
CADORNA AVE,Toronto,M4J 3W7,43.69,-79.3975
CADORNA AVE,Toronto,M4J 3W8,43.69,-79.3975
CADORNA AVE,Toronto,M4J 3W9,43.69,-79.3975
CADORNA AVE,Toronto,M4J 3X1,43.69,-79.3975
CADORNA AVE,Toronto,M4J 3X2,43.69,-79.3975
CADORNA AVE,Toronto,M4J 3X3,43.69,-79.3975
CADORNA AVE,Toronto,M4J 3X4,43.69,-79.3975
CADORNA AVE,Toronto,M4J 3X5,43.69,-79.3975
DON MILLS RD,Toronto,M4J 3Z6,43.69,-79.3975
DON MILLS RD,Toronto,M4J 3Z7,43.69,-79.3975
FRANKDALE AVE,Toronto,M4J 3Z8,43.69,-79.3975
FRANKDALE AVE,Toronto,M4J 3Z9,43.69,-79.3975
FRANKDALE AVE,Toronto,M4J 4A1,43.69,-79.3975
FRANKDALE AVE,Toronto,M4J 4A2,43.69,-79.3975
FRANKDALE AVE,Toronto,M4J 4A3,43.69,-79.3975
FRANKDALE AVE,Toronto,M4J 4A4,43.69,-79.3975
DUSTAN CRES,Toronto,M4J 4G4,43.69,-79.3975
DUSTAN CRES,Toronto,M4J 4G5,43.69,-79.3975
ATHLONE RD,Toronto,M4J 4H1,43.69,-79.3975
ATHLONE RD,Toronto,M4J 4H2,43.69,-79.3975
ATHLONE RD,Toronto,M4J 4H3,43.69,-79.3975
ATHLONE RD,Toronto,M4J 4H4,43.69,-79.3975
AIRLEY CRES,Toronto,M4J 4H5,43.69,-79.3975
AIRLEY CRES,Toronto,M4J 4H6,43.69,-79.3975
DERWYN RD,Toronto,M4J 4M7,43.69,-79.3975
DERWYN RD,Toronto,M4J 4M8,43.69,-79.3975
DERWYN RD,Toronto,M4J 4M9,43.69,-79.3975
DERWYN RD,Toronto,M4J 4N1,43.69,-79.3975
BONNIE BRAE BLVD,Toronto,M4J 4N2,43.69,-79.3975
BONNIE BRAE BLVD,Toronto,M4J 4N3,43.69,-79.3975
BARFIELD AVE,Toronto,M4J 4N4,43.69,-79.3975
BARFIELD AVE,Toronto,M4J 4N5,43.69,-79.3975
DURANT AVE,Toronto,M4J 4V9,43.69,-79.3975
DURANT AVE,Toronto,M4J 4W2,43.69,-79.3975
DURANT AVE,Toronto,M4J 4W3,43.69,-79.3975
DURANT AVE,Toronto,M4J 4W4,43.69,-79.3975
DURANT AVE,Toronto,M4J 4W5,43.69,-79.3975
DURANT AVE,Toronto,M4J 4W6,43.69,-79.3975
COSBURN AVE,Toronto,M4J 4Y7,43.69,-79.3975
ELMSDALE RD,Toronto,M4J 5C6,43.69,-79.3975
ELMSDALE RD,Toronto,M4J 5C7,43.69,-79.3975
BROWNING AVE,Toronto,M4K 1X1,43.6788,-79.3551
BROWNING AVE,Toronto,M4K 1X2,43.6788,-79.3551
FULTON AVE,Toronto,M4K 1Y6,43.6788,-79.3551
FULTON AVE,Toronto,M4K 1Y7,43.6788,-79.3551
DILWORTH CRES,Toronto,M4K 1Z5,43.6788,-79.3551
DILWORTH CRES,Toronto,M4K 1Z6,43.6788,-79.3551
FLOYD AVE,Toronto,M4K 2B3,43.6788,-79.3551
FLOYD AVE,Toronto,M4K 2B4,43.6788,-79.3551
FLOYD AVE,Toronto,M4K 2B5,43.6788,-79.3551
FLOYD AVE,Toronto,M4K 2B6,43.6788,-79.3551
FLOYD AVE,Toronto,M4K 2B7,43.6788,-79.3551
BATER AVE,Toronto,M4K 2C1,43.6788,-79.3551
BATER AVE,Toronto,M4K 2C4,43.6788,-79.3551
BATER AVE,Toronto,M4K 2C5,43.6788,-79.3551
COSBURN AVE,Toronto,M4K 2E6,43.6788,-79.3551
COSBURN AVE,Toronto,M4K 2E7,43.6788,-79.3551
COSBURN AVE,Toronto,M4K 2E8,43.6788,-79.3551
COSBURN AVE,Toronto,M4K 2G4,43.6788,-79.3551
GAMBLE AVE,Toronto,M4K 2G8,43.6788,-79.3551
GAMBLE AVE,Toronto,M4K 2H3,43.6788,-79.3551
GAMBLE AVE,Toronto,M4K 2H4,43.6788,-79.3551
DON VALLEY DR,Toronto,M4K 2J1,43.6788,-79.3551
DON VALLEY DR,Toronto,M4K 2J2,43.6788,-79.3551
DON VALLEY DR,Toronto,M4K 2J3,43.6788,-79.3551
DON VALLEY DR,Toronto,M4K 2J4,43.6788,-79.3551
FERNWOOD GDNS,Toronto,M4K 2J8,43.6788,-79.3551
FERNWOOD GDNS,Toronto,M4K 2J9,43.6788,-79.3551
BEECHWOOD CRES,Toronto,M4K 2K8,43.6788,-79.3551
BEECHWOOD CRES,Toronto,M4K 2K8,43.6788,-79.3551
BEECHWOOD CRES,Toronto,M4K 2K9,43.6788,-79.3551
BEECHWOOD CRES,Toronto,M4K 2K9,43.6788,-79.3551
BROADVIEW AVE,Toronto,M4K 2R5,43.6788,-79.3551
BROADVIEW AVE,Toronto,M4K 2R6,43.6788,-79.3551
BROADVIEW AVE,Toronto,M4K 2R9,43.6788,-79.3551
BROADVIEW AVE,Toronto,M4K 2S1,43.6788,-79.3551
BROADVIEW AVE,Toronto,M4K 2S2,43.6788,-79.3551
BROADVIEW AVE,Toronto,M4K 2S4,43.6788,-79.3551
BROADVIEW AVE,Toronto,M4K 2S5,43.6788,-79.3551
BROADVIEW AVE,Toronto,M4K 2S6,43.6788,-79.3551
BROADVIEW AVE,Toronto,M4K 2S7,43.6788,-79.3551
BROADVIEW AVE,Toronto,M4K 2S8,43.6788,-79.3551
BROADVIEW AVE,Toronto,M4K 2T1,43.6788,-79.3551
BROADVIEW AVE,Toronto,M4K 2T2,43.6788,-79.3551
BROADVIEW AVE,Toronto,M4K 2T3,43.6788,-79.3551
BROADVIEW AVE,Toronto,M4K 2T4,43.6788,-79.3551
BROADVIEW AVE,Toronto,M4K 2T5,43.6788,-79.3551
ARUNDEL AVE,Toronto,M4K 3A8,43.6788,-79.3551
ARUNDEL AVE,Toronto,M4K 3A9,43.6788,-79.3551
ARUNDEL AVE,Toronto,M4K 3B1,43.6788,-79.3551
BEECHWOOD DR,Toronto,M4K 3H7,43.6788,-79.3551
BEECHWOOD DR,Toronto,M4K 3H7,43.6788,-79.3551
BEECHWOOD DR,Toronto,M4K 3H8,43.6788,-79.3551
BEECHWOOD DR,Toronto,M4K 3H8,43.6788,-79.3551
CARLAW AVE,Toronto,M4K 3L9,43.6788,-79.3551
CARLAW AVE,Toronto,M4K 3M1,43.6788,-79.3551
CARLAW AVE,Toronto,M4K 3M3,43.6788,-79.3551
CARLAW AVE,Toronto,M4K 3M4,43.6788,-79.3551
CARLAW AVE,Toronto,M4K 3M5,43.6788,-79.3551
CARLAW AVE,Toronto,M4K 3M6,43.6788,-79.3551
BURLEY AVE,Toronto,M4K 3Z6,43.6788,-79.3551
Toronto AVE,Toronto,M4K 3Z8,43.6788,-79.3551
Toronto AVE,Toronto,M4K 3Z9,43.6788,-79.3551
DOUGLAS CRES,Toronto,M4W 2E6,43.6785,-79.3798
DOUGLAS CRES,Toronto,M4W 2E7,43.6785,-79.3798
DOUGLAS CRES,Toronto,M4W 2E8,43.6785,-79.3798
